{
  "type": "FeatureCollection",
  "features": [
    {
      "type": "Feature",
      "properties": {
        "norad_id": 33835,
        "name": "COSMOS 2251 DEB",
        "group": "cosmos-2251-debris",
        "lat": 26.490742028747036,
        "lon": -107.48845700866256,
        "alt_km": 648.7597436526721,
        "timestamp": "2025-12-23T09:49:07.475709+00:00",
        "meta_object_name": "COSMOS 2251 DEB",
        "meta_object_id": "1993-036CC",
        "meta_epoch": "2025-12-22T17:25:34.372992",
        "meta_mean_motion": 14.62339881,
        "meta_eccentricity": 0.00538814,
        "meta_inclination": 74.0574,
        "meta_ra_of_asc_node": 82.0079,
        "meta_arg_of_pericenter": 132.6351,
        "meta_mean_anomaly": 25.1633,
        "meta_ephemeris_type": 0,
        "meta_classification_type": "U",
        "meta_norad_cat_id": 33835,
        "meta_element_set_no": 999,
        "meta_rev_at_epoch": 88935,
        "meta_bstar": 0.00089730778,
        "meta_mean_motion_dot": 4.601e-05,
        "meta_mean_motion_ddot": 0,
        "tle_line1": "1 33835U 93036CC  25356.72609228  .00004601  00000+0  89731-3 0  9991",
        "tle_line2": "2 33835  74.0574  82.0079 0053881 132.6351  25.1633 14.62339881889351"
      },
      "geometry": {
        "type": "Point",
        "coordinates": [
          -107.48845700866256,
          26.490742028747036
        ]
      }
    },
    {
      "type": "Feature",
      "properties": {
        "norad_id": 33836,
        "name": "COSMOS 2251 DEB",
        "group": "cosmos-2251-debris",
        "lat": 52.74084052608278,
        "lon": 35.72916070043921,
        "alt_km": 611.9376993308124,
        "timestamp": "2025-12-23T09:49:07.475719+00:00",
        "meta_object_name": "COSMOS 2251 DEB",
        "meta_object_id": "1993-036CD",
        "meta_epoch": "2025-12-22T03:11:10.203936",
        "meta_mean_motion": 14.79767992,
        "meta_eccentricity": 0.002276,
        "meta_inclination": 73.9964,
        "meta_ra_of_asc_node": 240.4143,
        "meta_arg_of_pericenter": 89.9867,
        "meta_mean_anomaly": 77.3211,
        "meta_ephemeris_type": 0,
        "meta_classification_type": "U",
        "meta_norad_cat_id": 33836,
        "meta_element_set_no": 999,
        "meta_rev_at_epoch": 64227,
        "meta_bstar": 0.0011261965,
        "meta_mean_motion_dot": 8.487e-05,
        "meta_mean_motion_ddot": 0,
        "tle_line1": "1 33836U 93036CD  25356.13275699  .00008487  00000+0  11262-2 0  9997",
        "tle_line2": "2 33836  73.9964 240.4143 0022760  89.9867  77.3211 14.79767992642278"
      },
      "geometry": {
        "type": "Point",
        "coordinates": [
          35.72916070043921,
          52.74084052608278
        ]
      }
    },
    {
      "type": "Feature",
      "properties": {
        "norad_id": 33837,
        "name": "COSMOS 2251 DEB",
        "group": "cosmos-2251-debris",
        "lat": 64.66408056930531,
        "lon": 72.77855497232429,
        "alt_km": 742.0126127111625,
        "timestamp": "2025-12-23T09:49:07.475730+00:00",
        "meta_object_name": "COSMOS 2251 DEB",
        "meta_object_id": "1993-036CE",
        "meta_epoch": "2025-12-22T11:58:47.745408",
        "meta_mean_motion": 14.50720949,
        "meta_eccentricity": 0.00358993,
        "meta_inclination": 74.0124,
        "meta_ra_of_asc_node": 37.2238,
        "meta_arg_of_pericenter": 257.3918,
        "meta_mean_anomaly": 102.3227,
        "meta_ephemeris_type": 0,
        "meta_classification_type": "U",
        "meta_norad_cat_id": 33837,
        "meta_element_set_no": 999,
        "meta_rev_at_epoch": 88937,
        "meta_bstar": 0.0002310609,
        "meta_mean_motion_dot": 8.87e-06,
        "meta_mean_motion_ddot": 0,
        "tle_line1": "1 33837U 93036CE  25356.49916372  .00000887  00000+0  23106-3 0  9994",
        "tle_line2": "2 33837  74.0124  37.2238 0035899 257.3918 102.3227 14.50720949889371"
      },
      "geometry": {
        "type": "Point",
        "coordinates": [
          72.77855497232429,
          64.66408056930531
        ]
      }
    },
    {
      "type": "Feature",
      "properties": {
        "norad_id": 33838,
        "name": "COSMOS 2251 DEB",
        "group": "cosmos-2251-debris",
        "lat": -31.490695707250328,
        "lon": -40.06840553944441,
        "alt_km": 721.0434173425592,
        "timestamp": "2025-12-23T09:49:07.475740+00:00",
        "meta_object_name": "COSMOS 2251 DEB",
        "meta_object_id": "1993-036CF",
        "meta_epoch": "2025-12-22T20:07:10.186176",
        "meta_mean_motion": 14.48392182,
        "meta_eccentricity": 0.00274838,
        "meta_inclination": 74.0363,
        "meta_ra_of_asc_node": 130.9013,
        "meta_arg_of_pericenter": 251.399,
        "meta_mean_anomaly": 226.5272,
        "meta_ephemeris_type": 0,
        "meta_classification_type": "U",
        "meta_norad_cat_id": 33838,
        "meta_element_set_no": 999,
        "meta_rev_at_epoch": 88715,
        "meta_bstar": 0.00036244538,
        "meta_mean_motion_dot": 1.336e-05,
        "meta_mean_motion_ddot": 0,
        "tle_line1": "1 33838U 93036CF  25356.83831234  .00001336  00000+0  36245-3 0  9994",
        "tle_line2": "2 33838  74.0363 130.9013 0027483 251.3990 226.5272 14.48392182887157"
      },
      "geometry": {
        "type": "Point",
        "coordinates": [
          -40.06840553944441,
          -31.490695707250328
        ]
      }
    },
    {
      "type": "Feature",
      "properties": {
        "norad_id": 33839,
        "name": "COSMOS 2251 DEB",
        "group": "cosmos-2251-debris",
        "lat": 34.78989242417536,
        "lon": -162.55095009711638,
        "alt_km": 687.1196427166706,
        "timestamp": "2025-12-23T09:49:07.475750+00:00",
        "meta_object_name": "COSMOS 2251 DEB",
        "meta_object_id": "1993-036CG",
        "meta_epoch": "2025-12-22T06:18:05.356800",
        "meta_mean_motion": 14.64442712,
        "meta_eccentricity": 0.00853344,
        "meta_inclination": 74.0375,
        "meta_ra_of_asc_node": 188.1814,
        "meta_arg_of_pericenter": 298.0809,
        "meta_mean_anomaly": 175.3247,
        "meta_ephemeris_type": 0,
        "meta_classification_type": "U",
        "meta_norad_cat_id": 33839,
        "meta_element_set_no": 999,
        "meta_rev_at_epoch": 89719,
        "meta_bstar": 0.00019432644,
        "meta_mean_motion_dot": 1.05e-05,
        "meta_mean_motion_ddot": 0,
        "tle_line1": "1 33839U 93036CG  25356.26256200  .00001050  00000+0  19433-3 0  9999",
        "tle_line2": "2 33839  74.0375 188.1814 0085334 298.0809 175.3247 14.64442712897192"
      },
      "geometry": {
        "type": "Point",
        "coordinates": [
          -162.55095009711638,
          34.78989242417536
        ]
      }
    },
    {
      "type": "Feature",
      "properties": {
        "norad_id": 33841,
        "name": "COSMOS 2251 DEB",
        "group": "cosmos-2251-debris",
        "lat": -6.500980467729352,
        "lon": 80.26774105349293,
        "alt_km": 781.913091280082,
        "timestamp": "2025-12-23T09:49:07.475760+00:00",
        "meta_object_name": "COSMOS 2251 DEB",
        "meta_object_id": "1993-036CJ",
        "meta_epoch": "2025-12-22T19:53:24.744768",
        "meta_mean_motion": 14.37874097,
        "meta_eccentricity": 0.00209417,
        "meta_inclination": 74.0377,
        "meta_ra_of_asc_node": 259.4668,
        "meta_arg_of_pericenter": 337.9599,
        "meta_mean_anomaly": 85.8947,
        "meta_ephemeris_type": 0,
        "meta_classification_type": "U",
        "meta_norad_cat_id": 33841,
        "meta_element_set_no": 999,
        "meta_rev_at_epoch": 88259,
        "meta_bstar": 0.00018681025,
        "meta_mean_motion_dot": 5.39e-06,
        "meta_mean_motion_ddot": 0,
        "tle_line1": "1 33841U 93036CJ  25356.82875862  .00000539  00000+0  18681-3 0  9990",
        "tle_line2": "2 33841  74.0377 259.4668 0020941 337.9599  85.8947 14.37874097882593"
      },
      "geometry": {
        "type": "Point",
        "coordinates": [
          80.26774105349293,
          -6.500980467729352
        ]
      }
    },
    {
      "type": "Feature",
      "properties": {
        "norad_id": 33842,
        "name": "COSMOS 2251 DEB",
        "group": "cosmos-2251-debris",
        "lat": -73.7288693111847,
        "lon": 98.66792352538083,
        "alt_km": 729.802594434711,
        "timestamp": "2025-12-23T09:49:07.475771+00:00",
        "meta_object_name": "COSMOS 2251 DEB",
        "meta_object_id": "1993-036CK",
        "meta_epoch": "2025-12-22T22:35:48.329376",
        "meta_mean_motion": 14.4271613,
        "meta_eccentricity": 0.00475321,
        "meta_inclination": 74.0316,
        "meta_ra_of_asc_node": 200.7155,
        "meta_arg_of_pericenter": 306.0487,
        "meta_mean_anomaly": 53.627,
        "meta_ephemeris_type": 0,
        "meta_classification_type": "U",
        "meta_norad_cat_id": 33842,
        "meta_element_set_no": 999,
        "meta_rev_at_epoch": 88484,
        "meta_bstar": 0.00024743544,
        "meta_mean_motion_dot": 8.08e-06,
        "meta_mean_motion_ddot": 0,
        "tle_line1": "1 33842U 93036CK  25356.94153159  .00000808  00000+0  24744-3 0  9998",
        "tle_line2": "2 33842  74.0316 200.7155 0047532 306.0487  53.6270 14.42716130884846"
      },
      "geometry": {
        "type": "Point",
        "coordinates": [
          98.66792352538083,
          -73.7288693111847
        ]
      }
    }
  ]
}